NORAD_CAT_ID,OBJECT_NAME,OBJECT_TYPE,EPOCH,MEAN_MOTION,ECCENTRICITY,INCLINATION,RA_OF_ASC_NODE,ARG_OF_PERICENTER,MEAN_ANOMALY,BSTAR,MEAN_MOTION_DOT,MEAN_MOTION_DDOT,TLE_LINE0,TLE_LINE1,TLE_LINE2,SEMIMAJOR_AXIS,PERIOD,APOGEE,PERIGEE,DECAYED
52996.0,STARLINK-4295,PAYLOAD,2022-09-05 20:00:01,15.29693772,0.0001804,53.2173,84.8246,41.8045,87.7954,-0.039913,-0.01067148,0.0,0 STARLINK-4295,1 52996U 22076L   22248.83334491 -.01067148  00000-0 -39913-1 0  9996,2 52996  53.2173  84.8246 0001804  41.8045  87.7954 15.29693772  9933,6854.864000000001,94.136,477.966,475.492,0.0
52996.0,STARLINK-4295,PAYLOAD,2022-09-05 22:00:00,15.29522879,0.0001601,53.2177,84.4398,60.585,168.1357,-0.041059,-0.01089866,0.0,0 STARLINK-4295,1 52996U 22076L   22248.91667824 -.01089866  00000-0 -41059-1 0  9999,2 52996  53.2177  84.4398 0001601  60.5850 168.1357 15.29522879  1301,6855.375,94.147,478.337,476.142,0.0
52996.0,STARLINK-4295,PAYLOAD,2022-09-06 14:00:01,15.2798437,0.0001428,53.2176,81.3464,55.1925,244.5512,-0.041991,-0.01065049,0.0,0 STARLINK-4295,1 52996U 22076L   22249.58334491 -.01065049  00000-0 -41991-1 0  9996,2 52996  53.2176  81.3464 0001428  55.1925 244.5512 15.27984370  1308,6859.976,94.242,482.82,480.861,0.0
52996.0,STARLINK-4295,PAYLOAD,2022-09-06 20:00:01,15.27413575,0.0001595999999999,53.2174,80.191,54.812,180.61900000000003,-0.042683,-0.01063941,0.0,0 STARLINK-4295,1 52996U 22076L   22249.83334491 -.01063941  00000-0 -42683-1 0  9992,2 52996  53.2174  80.1910 0001596  54.8120 180.6190 15.27413575 10090,6861.684,94.277,484.645,482.454,0.0
52996.0,STARLINK-4295,PAYLOAD,2022-09-06 22:00:00,15.27224961,0.0001443999999999,53.2176,79.806,50.6995,283.1792,-0.043011,-0.0106575,0.0,0 STARLINK-4295,1 52996U 22076L   22249.91667824 -.01065750  00000-0 -43011-1 0  9996,2 52996  53.2176  79.8060 0001444  50.6995 283.1792 15.27224961  1309,6862.249,94.289,485.105,483.124,0.0
52996.0,STARLINK-4295,PAYLOAD,2022-09-07 12:00:00,15.25893915,0.0001422,53.2175,77.1091,55.1639,246.2586,-0.044635,-0.0106232999999999,0.0,0 STARLINK-4295,1 52996U 22076L   22250.50001157 -.01062330  00000-0 -44635-1 0  9998,2 52996  53.2175  77.1091 0001422  55.1639 246.2586 15.25893915 10191,6866.239000000001,94.371,489.081,487.128,0.0
52996.0,STARLINK-4295,PAYLOAD,2022-09-07 14:00:01,15.25705683,0.0001471,53.2176,76.7251,47.9144,351.4994,-0.045017,-0.01065086,0.0,0 STARLINK-4295,1 52996U 22076L   22250.58334491 -.01065086  00000-0 -45017-1 0  9992,2 52996  53.2176  76.7251 0001471  47.9144 351.4994 15.25705683  1308,6866.804,94.383,489.679,487.659,0.0
52996.0,STARLINK-4295,PAYLOAD,2022-09-07 22:00:00,15.24945301,0.0001541999999999,53.2176,75.1898,47.4125,23.3989,-0.046024,-0.01064245,0.0,0 STARLINK-4295,1 52996U 22076L   22250.91667824 -.01064245  00000-0 -46024-1 0  9993,2 52996  53.2176  75.1898 0001542  47.4125  23.3989 15.24945301  1302,6869.087,94.43,492.011,489.892,0.0
52996.0,STARLINK-4295,PAYLOAD,2022-09-08 04:00:00,15.243781,0.0001468,53.2173,74.0376,46.8543,316.9062,-0.047011,-0.01068272,0.0,0 STARLINK-4295,1 52996U 22076L   22251.16667824 -.01068272  00000-0 -47011-1 0  9992,2 52996  53.2173  74.0376 0001468  46.8543 316.9062 15.24378100 10290,6870.791,94.465,493.664,491.647,0.0
52996.0,STARLINK-4295,PAYLOAD,2022-09-08 14:00:01,15.23426054,0.0001817,53.2176,72.1196,41.2857,89.5847,-0.048129,-0.01063404,0.0,0 STARLINK-4295,1 52996U 22076L   22251.58334491 -.01063404  00000-0 -48129-1 0  9992,2 52996  53.2176  72.1196 0001817  41.2857  89.5847 15.23426054  1304,6873.653,94.524,496.767,494.269,0.0
52996.0,STARLINK-4295,PAYLOAD,2022-09-08 22:00:00,15.22664268,0.0001585999999999,53.2176,70.5898,54.9876,104.5428,-0.049047,-0.0105962,0.0,0 STARLINK-4295,1 52996U 22076L   22251.91667824 -.01059620  00000-0 -49047-1 0  9993,2 52996  53.2176  70.5898 0001586  54.9876 104.5428 15.22664268  1303,6875.945,94.571,498.901,496.72,0.0
52996.0,STARLINK-4295,PAYLOAD,2022-09-09 04:00:00,15.22097689,0.0001686,53.2174,69.441,41.574,48.8521,-0.0501389999999999,-0.01064687,0.0,0 STARLINK-4295,1 52996U 22076L   22252.16667824 -.01064687  00000-0 -50139-1 0  9994,2 52996  53.2174  69.4410 0001686  41.5740  48.8521 15.22097689 10447,6877.651,94.606,500.676,498.357,0.0
52996.0,STARLINK-4295,PAYLOAD,2022-09-09 14:00:01,15.21146948,0.0001625,53.2176,67.5305,54.2029,159.9095,-0.051424,-0.01061916,0.0,0 STARLINK-4295,1 52996U 22076L   22252.58334491 -.01061916  00000-0 -51424-1 0  9991,2 52996  53.2176  67.5305 0001625  54.2029 159.9095 15.21146948  1302,6880.517,94.665,503.5,501.264,0.0
52996.0,STARLINK-4295,PAYLOAD,2022-09-09 22:00:00,15.20385113,0.0001626999999999,53.2175,66.0057,51.3891,188.6453,-0.0523649999999999,-0.01057737,0.0,0 STARLINK-4295,1 52996U 22076L   22252.91667824 -.01057737  00000-0 -52365-1 0  9998,2 52996  53.2175  66.0057 0001627  51.3891 188.6453 15.20385113  1301,6882.815,94.713,505.8,503.56,0.0
52996.0,STARLINK-4295,PAYLOAD,2022-09-10 04:00:00,15.19819192,0.0001689,53.2174,64.8608,48.6222,120.2545,-0.053599,-0.01064261,0.0,0 STARLINK-4295,1 52996U 22076L   22253.16667824 -.01064261  00000-0 -53599-1 0  9996,2 52996  53.2174  64.8608 0001689  48.6222 120.2545 15.19819192 10607,6884.524,94.748,507.551,505.226,0.0
52996.0,STARLINK-4295,PAYLOAD,2022-09-10 14:00:01,15.18868794,0.0001533,53.2175,62.9571,51.6853,237.4549,-0.054986,-0.01062078,0.0,0 STARLINK-4295,1 52996U 22076L   22253.58334491 -.01062078  00000-0 -54986-1 0  9998,2 52996  53.2175  62.9571 0001533  51.6853 237.4549 15.18868794  1301,6887.395,94.807,510.316,508.204,0.0
52996.0,STARLINK-4295,PAYLOAD,2022-09-10 22:00:00,15.18107453,0.0001492,53.2174,61.4375,50.2687,262.0553,-0.056019,-0.01072023,0.0,0 STARLINK-4295,1 52996U 22076L   22253.91667824 -.01072023  00000-0 -56019-1 0  9994,2 52996  53.2174  61.4375 0001492  50.2687 262.0553 15.18107453  1307,6889.698,94.855,512.591,510.535,0.0
52996.0,STARLINK-4295,PAYLOAD,2022-09-11 04:00:00,15.17541345,0.0001565999999999,53.2174,60.2966,54.5728,184.5403,-0.057328,-0.01078745,0.0,0 STARLINK-4295,1 52996U 22076L   22254.16667824 -.01078745  00000-0 -57328-1 0  9993,2 52996  53.2174  60.2966 0001566  54.5728 184.5403 15.17541345 10757,6891.411,94.89,514.355,512.197,0.0
52996.0,STARLINK-4295,PAYLOAD,2022-09-11 14:00:01,15.16591011,0.0001671,53.2175,58.3996,39.5476,316.4065,-0.058802,-0.01076778,0.0,0 STARLINK-4295,1 52996U 22076L   22254.58334491 -.01076778  00000-0 -58802-1 0  9992,2 52996  53.2175  58.3996 0001671  39.5476 316.4065 15.16591011  1304,6894.29,94.95,517.307,515.003,0.0
52996.0,STARLINK-4295,PAYLOAD,2022-09-11 22:00:00,15.15829297,0.000175,53.2173,56.8853,35.9499,340.4503,-0.059854,-0.01072701,0.0,0 STARLINK-4295,1 52996U 22076L   22254.91667824 -.01072701  00000-0 -59854-1 0  9998,2 52996  53.2173  56.8853 0001750  35.9499 340.4503 15.15829297  1303,6896.599,94.998,519.6709999999998,517.257,0.0
52996.0,STARLINK-4295,PAYLOAD,2022-09-12 04:00:00,15.15262861,0.0001638,53.2174,55.7483,43.0058,258.1299,-0.06121,-0.01078895,0.0,0 STARLINK-4295,1 52996U 22076L   22255.16667824 -.01078895  00000-0 -61210-1 0  9995,2 52996  53.2174  55.7483 0001638  43.0058 258.1299 15.15262861 10908,6898.318,95.033,521.313,519.053,0.0
52996.0,STARLINK-4295,PAYLOAD,2022-09-12 14:00:01,15.14312388,0.0001847,53.2174,53.8583,35.6701,18.8842,-0.062753,-0.01076797,0.0,0 STARLINK-4295,1 52996U 22076L   22255.58334491 -.01076797  00000-0 -62753-1 0  9994,2 52996  53.2174  53.8583 0001847  35.6701  18.8842 15.14312388  1300,6901.204000000002,95.093,524.344,521.794,0.0
52996.0,STARLINK-4295,PAYLOAD,2022-09-12 22:00:00,15.13584206,0.0001889,53.2172,52.3506,34.308,37.9349,-0.066574,-0.01115884,0.0,0 STARLINK-4295,1 52996U 22076L   22255.91667824 -.01115884  00000-0 -66574-1 0  9996,2 52996  53.2172  52.3506 0001889  34.3080  37.9349 15.13584206  1302,6903.417,95.138,526.586,523.9780000000002,0.0
52996.0,STARLINK-4295,PAYLOAD,2022-09-13 06:00:00,15.12790859,0.0001826,53.2173,50.8386,37.0007,52.0586,-0.06525,-0.01072848,0.0,0 STARLINK-4295,1 52996U 22076L   22256.25001157 -.01072848  00000-0 -65250-1 0  9997,2 52996  53.2173  50.8386 0001826  37.0007  52.0586 15.12790859 11069,6905.83,95.188,528.956,526.434,0.0
52996.0,STARLINK-4295,PAYLOAD,2022-09-13 14:00:01,15.12032946,0.0001913,53.2173,49.3326,38.0757,66.8651,-0.0668179999999999,-0.01075325,0.0,0 STARLINK-4295,1 52996U 22076L   22256.58334491 -.01075325  00000-0 -66818-1 0  9997,2 52996  53.2173  49.3326 0001913  38.0757  66.8651 15.12032946  1304,6908.138000000001,95.236,531.325,528.681,0.0
52996.0,STARLINK-4295,PAYLOAD,2022-09-13 22:00:00,15.11271197,0.0001983,53.2171,47.8285,35.7997,84.1113,-0.067947,-0.0107082,0.0,0 STARLINK-4295,1 52996U 22076L   22256.91667824 -.01070820  00000-0 -67947-1 0  9992,2 52996  53.2171  47.8285 0001983  35.7997  84.1113 15.11271197  1304,6910.459,95.284,533.695,530.9540000000002,0.0
52996.0,STARLINK-4295,PAYLOAD,2022-09-14 04:00:00,15.10703636,0.0001761,53.2174,46.6995,36.3866,4.1534,-0.069349,-0.01075374,0.0,0 STARLINK-4295,1 52996U 22076L   22257.16667824 -.01075374  00000-0 -69349-1 0  9997,2 52996  53.2174  46.6995 0001761  36.3866   4.1534 15.10703636 11204,6912.19,95.32,535.2719999999998,532.8380000000002,0.0
52996.0,STARLINK-4295,PAYLOAD,2022-09-14 14:00:01,15.09654684,0.0001861,53.2174,44.8236,44.1342,102.9974,-0.053108,-0.00807322,0.0,0 STARLINK-4295,1 52996U 22076L   22257.58334491 -.00807322  00000-0 -53108-1 0  9995,2 52996  53.2174  44.8236 0001861  44.1342 102.9974 15.09654684  1300,6915.391,95.386,538.543,535.969,0.0
52996.0,STARLINK-4295,PAYLOAD,2022-09-14 20:00:01,15.09109679,0.0001564,53.2174,43.7007,58.0887,8.2906,-0.024436,-0.00372302,0.0,0 STARLINK-4295,1 52996U 22076L   22257.83334491 -.00372302  00000-0 -24436-1 0  9990,2 52996  53.2174  43.7007 0001564  58.0887   8.2906 15.09109679 11305,6917.056,95.42,540.003,537.839,0.0
